NORAD_CAT_ID,OBJECT_NAME,OBJECT_TYPE,EPOCH,MEAN_MOTION,ECCENTRICITY,INCLINATION,RA_OF_ASC_NODE,ARG_OF_PERICENTER,MEAN_ANOMALY,BSTAR,MEAN_MOTION_DOT,MEAN_MOTION_DDOT,TLE_LINE0,TLE_LINE1,TLE_LINE2,SEMIMAJOR_AXIS,PERIOD,APOGEE,PERIGEE,DECAYED
54099.0,STARLINK-5198,PAYLOAD,2023-02-25 13:57:02,15.08813607,0.0002029,53.2146,268.1636,65.4673,294.6531,-0.00028901,-4.882e-05,0.0,0 STARLINK-5198,1 54099U 22136BA  23056.58127703 -.00004882  00000-0 -28901-3 0  9997,2 54099  53.2146 268.1636 0002029  65.4673 294.6531 15.08813607 19702,6917.961,95.439,541.23,538.422,0.0
54099.0,STARLINK-5198,PAYLOAD,2023-02-25 20:18:34,15.0883519,0.0001436,53.2168,266.9708,100.6499,259.4655,-0.00024306,-4.154e-05,0.0,0 STARLINK-5198,1 54099U 22136BA  23056.84622751 -.00004154  00000-0 -24306-3 0  9996,2 54099  53.2168 266.9708 0001436 100.6499 259.4655 15.08835190 20216,6917.895,95.438,540.754,538.767,0.0
54099.0,STARLINK-5198,PAYLOAD,2023-02-26 13:47:48,15.08845457,0.0001289,53.2165,263.6993,90.1001,270.0139,0.00042076,6.416e-05,0.0,0 STARLINK-5198,1 54099U 22136BA  23057.57487016  .00006416  00000-0  42076-3 0  9995,2 54099  53.2165 263.6993 0001289  90.1001 270.0139 15.08845457 19852,6917.864,95.437,540.62,538.837,0.0
54099.0,STARLINK-5198,PAYLOAD,2023-02-26 20:09:21,15.08861288,0.000129,53.2164,262.51,92.5605,267.5535,0.0013333,0.00021007,0.0,0 STARLINK-5198,1 54099U 22136BA  23057.83983343  .00021007  00000-0  13333-2 0  9994,2 54099  53.2164 262.5100 0001290  92.5605 267.5535 15.08861288 20366,6917.815,95.436,540.573,538.788,0.0
54099.0,STARLINK-5198,PAYLOAD,2023-02-27 00:55:30,15.08875203,0.000124,53.2163,261.6176,92.1499,267.9635,0.0014754,0.00023294,0.0,0 STARLINK-5198,1 54099U 22136BA  23058.03854903  .00023294  00000-0  14754-2 0  9994,2 54099  53.2163 261.6176 0001240  92.1499 267.9635 15.08875203 19927,6917.773,95.435,540.496,538.78,0.0
54099.0,STARLINK-5198,PAYLOAD,2023-02-27 18:24:44,15.0888969,0.0001285,53.2167,258.3471,89.7575,270.3564,0.0019422,0.000308,0.0,0 STARLINK-5198,1 54099U 22136BA  23058.76717673  .00030800  00000-0  19422-2 0  9994,2 54099  53.2167 258.3471 0001285  89.7575 270.3564 15.08889690 20508,6917.729,95.434,540.482,538.705,0.0
54099.0,STARLINK-5198,PAYLOAD,2023-02-27 20:00:07,15.08883382,0.0001304,53.2166,258.0493,86.8347,273.2795,0.0010726,0.00016844,0.0,0 STARLINK-5198,1 54099U 22136BA  23058.83341578  .00016844  00000-0  10726-2 0  9999,2 54099  53.2166 258.0493 0001304  86.8347 273.2795 15.08883382 20044,6917.748,95.435,540.515,538.711,0.0
54099.0,STARLINK-5198,PAYLOAD,2023-02-27 23:10:53,15.08890234,0.0001306,53.2165,257.4545,85.6895,274.4246,0.0012372,0.00019484,0.0,0 STARLINK-5198,1 54099U 22136BA  23058.96589163  .00019484  00000-0  12372-2 0  9999,2 54099  53.2165 257.4545 0001306  85.6895 274.4246 15.08890234 20533,6917.727,95.434,540.495,538.688,0.0
54099.0,STARLINK-5198,PAYLOAD,2023-02-28 13:29:21,15.08843424,0.0001326,53.2165,254.7783,105.1486,254.9653,6.145e-05,6.9e-06,0.0,0 STARLINK-5198,1 54099U 22136BA  23059.56205727  .00000690  00000-0  61450-4 0  9999,2 54099  53.2165 254.7783 0001326 105.1486 254.9653 15.08843424 20155,6917.87,95.437,540.652,538.818,0.0
54099.0,STARLINK-5198,PAYLOAD,2023-02-28 19:50:54,15.08830119,0.0001299,53.2164,253.5893,104.0215,256.0921,0.00065384,0.0001013,0.0,0 STARLINK-5198,1 54099U 22136BA  23059.82702160  .00010130  00000-0  65384-3 0  9990,2 54099  53.2164 253.5893 0001299 104.0215 256.0921 15.08830119 20192,6917.911,95.438,540.674,538.877,0.0
54099.0,STARLINK-5198,PAYLOAD,2023-03-01 21:17:04,15.08847762,0.0001142,53.2156,248.8305,101.1849,258.9272,0.00060326,9.328e-05,0.0,0 STARLINK-5198,1 54099U 22136BA  23060.88686190  .00009328  00000-0  60326-3 0  9990,2 54099  53.2156 248.8305 0001142 101.1849 258.9272 15.08847762 20356,6917.857,95.437,540.512,538.932,0.0
54099.0,STARLINK-5198,PAYLOAD,2023-03-01 22:52:27,15.0884972,0.0001163,53.2156,248.5332,102.0872,258.0251,0.00062322,9.647e-05,0.0,0 STARLINK-5198,1 54099U 22136BA  23060.95310134  .00009647  00000-0  62322-3 0  9992,2 54099  53.2156 248.5332 0001163 102.0872 258.0251 15.08849720 20839,6917.851,95.437,540.52,538.911,0.0
54099.0,STARLINK-5198,PAYLOAD,2023-03-02 19:32:28,15.08841164,0.0001188,53.2159,244.6672,95.5614,264.5514,0.00010202,1.336e-05,0.0,0 STARLINK-5198,1 54099U 22136BA  23061.81422234  .00001336  00000-0  10202-3 0  9990,2 54099  53.2159 244.6672 0001188  95.5614 264.5514 15.08841164 20493,6917.877,95.437,540.564,538.92,0.0
54099.0,STARLINK-5198,PAYLOAD,2023-03-03 11:26:19,15.08849369,0.0001309,53.2149,241.6938,86.8712,273.243,0.000282,4.204e-05,0.0,0 STARLINK-5198,1 54099U 22136BA  23062.47662024  .00004204  00000-0  28200-3 0  9990,2 54099  53.2149 241.6938 0001309  86.8712 273.2430 15.08849369 21064,6917.852,95.437,540.622,538.811,0.0
54099.0,STARLINK-5198,PAYLOAD,2023-03-04 11:17:07,15.08831029,0.0001055,53.2153,237.2343,92.4821,267.6292,-0.00014044,-2.522e-05,0.0,0 STARLINK-5198,1 54099U 22136BA  23063.47022424 -.00002522  00000-0 -14044-3 0  9999,2 54099  53.2153 237.2343 0001055  92.4821 267.6292 15.08831029 20743,6917.908,95.438,540.503,539.043,0.0
54099.0,STARLINK-5198,PAYLOAD,2023-03-04 14:27:53,15.08834612,0.0001125,53.2153,236.6392,89.827,270.2851,-3.7405e-05,-8.83e-06,0.0,0 STARLINK-5198,1 54099U 22136BA  23063.60270349 -.00000883  00000-0 -37405-4 0  9990,2 54099  53.2153 236.6392 0001125  89.8270 270.2851 15.08834612 21233,6917.897,95.438,540.54,538.984,0.0
54099.0,STARLINK-5198,PAYLOAD,2023-03-04 20:49:25,15.08843469,0.000134,53.2155,235.4499,89.2045,270.9101,0.00038512,5.847e-05,0.0,0 STARLINK-5198,1 54099U 22136BA  23063.86765950  .00005847  00000-0  38512-3 0  9997,2 54099  53.2155 235.4499 0001340  89.2045 270.9101 15.08843469 21272,6917.87,95.437,540.662,538.808,0.0
54099.0,STARLINK-5198,PAYLOAD,2023-03-05 04:46:21,15.08835117,0.0001572,53.2155,233.9637,86.9683,273.1489,0.0004329,6.607e-05,0.0,0 STARLINK-5198,1 54099U 22136BA  23064.19886573  .00006607  00000-0  43290-3 0  9993,2 54099  53.2155 233.9637 0001572  86.9683 273.1489 15.08835117 21329,6917.895,95.438,540.848,538.673,0.0
54099.0,STARLINK-5198,PAYLOAD,2023-03-05 17:29:27,15.08850184,0.0001443,53.2163,231.5848,90.0407,270.075,0.00082019,0.00012793,0.0,0 STARLINK-5198,1 54099U 22136BA  23064.72878477  .00012793  00000-0  82019-3 0  9991,2 54099  53.2163 231.5848 0001443  90.0407 270.0750 15.08850184 20937,6917.849,95.437,540.713,538.716,0.0
54099.0,STARLINK-5198,PAYLOAD,2023-03-06 18:55:37,15.08857664,0.0001451,53.2164,226.826,83.6351,276.4807,0.0008617,0.00013459,0.0,0 STARLINK-5198,1 54099U 22136BA  23065.78862353  .00013459  00000-0  86170-3 0  9996,2 54099  53.2164 226.8260 0001451  83.6351 276.4807 15.08857664 21561,6917.826,95.436,540.695,538.688,0.0
54099.0,STARLINK-5198,PAYLOAD,2023-03-06 20:31:00,15.08864085,0.0001445,53.2163,226.5284,83.4925,276.6232,0.0011149,0.00017512,0.0,0 STARLINK-5198,1 54099U 22136BA  23065.85486236  .00017512  00000-0  11149-2 0  9993,2 54099  53.2163 226.5284 0001445  83.4925 276.6232 15.08864085 21100,6917.807,95.436,540.671,538.672,0.0
54099.0,STARLINK-5198,PAYLOAD,2023-03-07 10:49:28,15.0884647,0.0001332,53.2168,223.8525,101.8705,258.2436,0.00076268,0.00011873,0.0,0 STARLINK-5198,1 54099U 22136BA  23066.45101992  .00011873  00000-0  76268-3 0  9991,2 54099  53.2168 223.8525 0001332 101.8705 258.2436 15.08846470 21660,6917.861,95.437,540.647,538.804,0.0
54099.0,STARLINK-5198,PAYLOAD,2023-03-07 20:21:46,15.08875006,0.0001007,53.217,222.0687,92.7061,267.4047,0.0022977,0.00036505,0.0,0 STARLINK-5198,1 54099U 22136BA  23066.84845647  .00036505  00000-0  22977-2 0  9992,2 54099  53.2170 222.0687 0001007  92.7061 267.4047 15.08875006 21729,6917.773,95.435,540.335,538.942,0.0
54099.0,STARLINK-5198,PAYLOAD,2023-03-08 04:18:42,15.08823254,6.77e-05,53.2172,220.5815,81.8668,278.2401,-0.00057528,-9.427e-05,0.0,0 STARLINK-5198,1 54099U 22136BA  23067.17966205 -.00009427  00000-0 -57528-3 0  9999,2 54099  53.2172 220.5815 0000677  81.8668 278.2401 15.08823254 21778,6917.932,95.439,540.265,539.328,0.0
54099.0,STARLINK-5198,PAYLOAD,2023-03-08 17:01:48,15.08847606,0.000106,53.2172,218.203,66.4449,293.6655,0.0026978,0.00042918,0.0,0 STARLINK-5198,1 54099U 22136BA  23067.70958848  .00042918  00000-0  26978-2 0  9996,2 54099  53.2172 218.2030 0001060  66.4449 293.6655 15.08847606 21852,6917.857,95.437,540.455,538.989,0.0
54099.0,STARLINK-5198,PAYLOAD,2023-03-08 21:47:58,15.08859316,0.0001131,53.217,217.3111,59.2308,300.8795,0.0035569,0.00056806,0.0,0 STARLINK-5198,1 54099U 22136BA  23067.90831026  .00056806  00000-0  35569-2 0  9993,2 54099  53.2170 217.3111 0001131  59.2308 300.8795 15.08859316 21412,6917.821,95.436,540.469,538.904,0.0
54099.0,STARLINK-5198,PAYLOAD,2023-03-08 23:23:21,15.0884463,0.0001386,53.2172,217.0129,51.7932,308.3184,0.0026733,0.0004252,0.0,0 STARLINK-5198,1 54099U 22136BA  23067.97455370  .00042520  00000-0  26733-2 0  9995,2 54099  53.2172 217.0129 0001386  51.7932 308.3184 15.08844630 21892,6917.866,95.437,540.69,538.772,0.0
54099.0,STARLINK-5198,PAYLOAD,2023-03-09 21:38:43,15.0891445,0.0001111,53.2173,212.8508,65.1231,294.9876,0.0033671,0.00053818,0.0,0 STARLINK-5198,1 54099U 22136BA  23068.90189418  .00053818  00000-0  33671-2 0  9997,2 54099  53.2173 212.8508 0001111  65.1231 294.9876 15.08914450 21564,6917.653,95.433,540.286,538.749,0.0
54099.0,STARLINK-5198,PAYLOAD,2023-03-10 00:49:30,15.08840069,0.0002028,53.217,212.2557,48.0335,312.083,-0.00098037,-0.00015857,0.0,0 STARLINK-5198,1 54099U 22136BA  23069.03438478 -.00015857  00000-0 -98037-3 0  9996,2 54099  53.2170 212.2557 0002028  48.0335 312.0830 15.08840069 22053,6917.88,95.438,541.148,538.342,0.0
54099.0,STARLINK-5198,PAYLOAD,2023-03-10 19:54:08,15.08864188,0.0001404,53.2168,208.6882,87.8593,272.256,0.0027916,0.0004445,0.0,0 STARLINK-5198,1 54099U 22136BA  23069.82926518  .00044450  00000-0  27916-2 0  9996,2 54099  53.2168 208.6882 0001404  87.8593 272.2560 15.08864188 22172,6917.806,95.436,540.643,538.7,0.0
